DIRECTV 11              
1 32729U 08013A   26061.56844590 -.00000143  00000+0  00000+0 0  9998
2 32729   0.0173 326.2461 0000311   3.6175 295.9188  1.00272097 44522
GALAXY 18 (G-18)        
1 32951U 08024A   26061.63509289  .00000008  00000+0  00000+0 0  9997
2 32951   0.0108 211.2999 0003006 144.1503 270.5766  1.00271825 44783
INTELSAT 25 (IS-25)     
1 33153U 08034A   26061.72456789 -.00000240  00000+0  00000+0 0  9998
2 33153   2.4331  81.6404 0003844 241.0534  67.1383  1.00270652 64620
GALAXY 19 (G-19)        
1 33376U 08045A   26061.56887925 -.00000156  00000+0  00000+0 0  9995
2 33376   0.0539 267.0838 0003087  84.7361 276.2990  1.00271848 63838
FM-5                    
1 35493U 09034A   26061.36850308 -.00000217  00000+0  00000+0 0  9997
2 35493   0.0413 274.2738 0001015 316.0082 336.3547  1.00271603 45576
INTELSAT 14 (IS-14)     
1 36097U 09064A   26061.72188123 -.00000290  00000+0  00000+0 0  9991
2 36097   0.0153  95.4276 0002558 258.4079  21.5234  1.00271675 59532
INTELSAT 15 (IS-15)     
1 36106U 09067A   26061.62113115 -.00000202  00000+0  00000+0 0  9996
2 36106   0.0205  97.2427 0002371 249.6344 122.2648  1.00271568 40167
DIRECTV 12              
1 36131U 09075A   26061.63907959 -.00000120  00000+0  00000+0 0  9990
2 36131   0.0191 324.8459 0000326  35.6672 287.2458  1.00271994 45482
INTELSAT 16 (IS-16)     
1 36397U 10006A   26061.57303927  .00000000  00000+0  00000+0 0  9994
2 36397   0.0239 133.5977 0002040 218.5259 298.3391  1.00268346 58588
XM-5                    
1 37185U 10053A   26061.70792781 -.00000040  00000+0  00000+0 0  9992
2 37185   0.0697 274.8669 0003422 255.2452 130.0124  1.00271101 56416
INTELSAT 17 (IS-17)     
1 37238U 10065B   26061.84072336 -.00000017  00000+0  00000+0 0  9990
2 37238   0.0258 205.3879 0002421 145.3040 178.5633  1.00269896 52180
INTELSAT 28 (IS-28)     
1 37392U 11016A   26061.72448123 -.00000241  00000+0  00000+0 0  9995
2 37392   1.5311  84.0054 0004519 254.3607  51.2211  1.00270518 52210
INTELSAT 18 (IS-18)     
1 37834U 11056A   26061.81711606  .00000036  00000+0  00000+0 0  9990
2 37834   0.0220 238.3233 0001980  98.2623 298.1359  1.00270216 52747
INTELSAT 22 (IS-22)     
1 38098U 12011A   26061.84072336 -.00000075  00000+0  00000+0 0  9992
2 38098   0.0238 231.2347 0001544 132.5811 171.5542  1.00273272  6128
INTELSAT 19 (IS-19)     
1 38356U 12030A   26061.82267098  .00000000  00000+0  00000+0 0  9996
2 38356   0.0251 152.0507 0003142 204.2128 266.5144  1.00269981 49382
INTELSAT 20 (IS-20)     
1 38740U 12043A   26061.74432800 -.00000041  00000+0  00000+0 0  9999
2 38740   0.0237 125.0071 0002367  39.1993 332.7528  1.00272383 49687
INTELSAT 21 (IS-21)     
1 38749U 12045A   26061.63127405 -.00000302  00000+0  00000+0 0  9990
2 38749   0.0406 270.9472 0001778  71.8207 346.8930  1.00271210 49451
