[{"OBJECT_NAME":"DIRECTV 11","OBJECT_ID":"2008-013A","EPOCH":"2026-03-02T13:38:33.725760","MEAN_MOTION":1.00272097,"ECCENTRICITY":3.11e-5,"INCLINATION":0.0173,"RA_OF_ASC_NODE":326.2461,"ARG_OF_PERICENTER":3.6175,"MEAN_ANOMALY":295.9188,"EPHEMERIS_TYPE":0,"CLASSIFICATION_TYPE":"U","NORAD_CAT_ID":32729,"ELEMENT_SET_NO":999,"REV_AT_EPOCH":4452,"BSTAR":0,"MEAN_MOTION_DOT":-1.43e-6,"MEAN_MOTION_DDOT":0},{"OBJECT_NAME":"GALAXY 18 (G-18)","OBJECT_ID":"2008-024A","EPOCH":"2026-03-02T15:14:32.025696","MEAN_MOTION":1.00271825,"ECCENTRICITY":0.0003006,"INCLINATION":0.0108,"RA_OF_ASC_NODE":211.2999,"ARG_OF_PERICENTER":144.1503,"MEAN_ANOMALY":270.5766,"EPHEMERIS_TYPE":0,"CLASSIFICATION_TYPE":"U","NORAD_CAT_ID":32951,"ELEMENT_SET_NO":999,"REV_AT_EPOCH":4478,"BSTAR":0,"MEAN_MOTION_DOT":8.0e-8,"MEAN_MOTION_DDOT":0},{"OBJECT_NAME":"INTELSAT 25 (IS-25)","OBJECT_ID":"2008-034A","EPOCH":"2026-03-02T17:23:22.665696","MEAN_MOTION":1.00270652,"ECCENTRICITY":0.0003844,"INCLINATION":2.4331,"RA_OF_ASC_NODE":81.6404,"ARG_OF_PERICENTER":241.0534,"MEAN_ANOMALY":67.1383,"EPHEMERIS_TYPE":0,"CLASSIFICATION_TYPE":"U","NORAD_CAT_ID":33153,"ELEMENT_SET_NO":999,"REV_AT_EPOCH":6462,"BSTAR":0,"MEAN_MOTION_DOT":-2.4e-6,"MEAN_MOTION_DDOT":0},{"OBJECT_NAME":"GALAXY 19 (G-19)","OBJECT_ID":"2008-045A","EPOCH":"2026-03-02T13:39:11.167200","MEAN_MOTION":1.00271848,"ECCENTRICITY":0.0003087,"INCLINATION":0.0539,"RA_OF_ASC_NODE":267.0838,"ARG_OF_PERICENTER":84.7361,"MEAN_ANOMALY":276.299,"EPHEMERIS_TYPE":0,"CLASSIFICATION_TYPE":"U","NORAD_CAT_ID":33376,"ELEMENT_SET_NO":999,"REV_AT_EPOCH":6383,"BSTAR":0,"MEAN_MOTION_DOT":-1.56e-6,"MEAN_MOTION_DDOT":0},{"OBJECT_NAME":"FM-5","OBJECT_ID":"2009-034A","EPOCH":"2026-03-02T08:50:38.666112","MEAN_MOTION":1.00271603,"ECCENTRICITY":0.00010155,"INCLINATION":0.0413,"RA_OF_ASC_NODE":274.2738,"ARG_OF_PERICENTER":316.0082,"MEAN_ANOMALY":336.3547,"EPHEMERIS_TYPE":0,"CLASSIFICATION_TYPE":"U","NORAD_CAT_ID":35493,"ELEMENT_SET_NO":999,"REV_AT_EPOCH":4557,"BSTAR":0,"MEAN_MOTION_DOT":-2.17e-6,"MEAN_MOTION_DDOT":0},{"OBJECT_NAME":"INTELSAT 14 (IS-14)","OBJECT_ID":"2009-064A","EPOCH":"2026-03-02T17:19:30.538272","MEAN_MOTION":1.00271675,"ECCENTRICITY":0.0002558,"INCLINATION":0.0153,"RA_OF_ASC_NODE":95.4276,"ARG_OF_PERICENTER":258.4079,"MEAN_ANOMALY":21.5234,"EPHEMERIS_TYPE":0,"CLASSIFICATION_TYPE":"U","NORAD_CAT_ID":36097,"ELEMENT_SET_NO":999,"REV_AT_EPOCH":5953,"BSTAR":0,"MEAN_MOTION_DOT":-2.9e-6,"MEAN_MOTION_DDOT":0},{"OBJECT_NAME":"INTELSAT 15 (IS-15)","OBJECT_ID":"2009-067A","EPOCH":"2026-03-02T14:54:25.731360","MEAN_MOTION":1.00271568,"ECCENTRICITY":0.0002371,"INCLINATION":0.0205,"RA_OF_ASC_NODE":97.2427,"ARG_OF_PERICENTER":249.6344,"MEAN_ANOMALY":122.2648,"EPHEMERIS_TYPE":0,"CLASSIFICATION_TYPE":"U","NORAD_CAT_ID":36106,"ELEMENT_SET_NO":999,"REV_AT_EPOCH":4016,"BSTAR":0,"MEAN_MOTION_DOT":-2.02e-6,"MEAN_MOTION_DDOT":0},{"OBJECT_NAME":"DIRECTV 12","OBJECT_ID":"2009-075A","EPOCH":"2026-03-02T15:20:16.476576","MEAN_MOTION":1.00271994,"ECCENTRICITY":3.26e-5,"INCLINATION":0.0191,"RA_OF_ASC_NODE":324.8459,"ARG_OF_PERICENTER":35.6672,"MEAN_ANOMALY":287.2458,"EPHEMERIS_TYPE":0,"CLASSIFICATION_TYPE":"U","NORAD_CAT_ID":36131,"ELEMENT_SET_NO":999,"REV_AT_EPOCH":4548,"BSTAR":0,"MEAN_MOTION_DOT":-1.2e-6,"MEAN_MOTION_DDOT":0},{"OBJECT_NAME":"INTELSAT 16 (IS-16)","OBJECT_ID":"2010-006A","EPOCH":"2026-03-02T13:45:10.592928","MEAN_MOTION":1.00268346,"ECCENTRICITY":0.000204,"INCLINATION":0.0239,"RA_OF_ASC_NODE":133.5977,"ARG_OF_PERICENTER":218.5259,"MEAN_ANOMALY":298.3391,"EPHEMERIS_TYPE":0,"CLASSIFICATION_TYPE":"U","NORAD_CAT_ID":36397,"ELEMENT_SET_NO":999,"REV_AT_EPOCH":5858,"BSTAR":0,"MEAN_MOTION_DOT":0,"MEAN_MOTION_DDOT":0},{"OBJECT_NAME":"XM-5","OBJECT_ID":"2010-053A","EPOCH":"2026-03-02T16:59:24.962784","MEAN_MOTION":1.00271101,"ECCENTRICITY":0.0003422,"INCLINATION":0.0697,"RA_OF_ASC_NODE":274.8669,"ARG_OF_PERICENTER":255.2452,"MEAN_ANOMALY":130.0124,"EPHEMERIS_TYPE":0,"CLASSIFICATION_TYPE":"U","NORAD_CAT_ID":37185,"ELEMENT_SET_NO":999,"REV_AT_EPOCH":5641,"BSTAR":0,"MEAN_MOTION_DOT":-4.0e-7,"MEAN_MOTION_DDOT":0},{"OBJECT_NAME":"INTELSAT 17 (IS-17)","OBJECT_ID":"2010-065B","EPOCH":"2026-03-02T20:10:38.498304","MEAN_MOTION":1.00269896,"ECCENTRICITY":0.0002421,"INCLINATION":0.0258,"RA_OF_ASC_NODE":205.3879,"ARG_OF_PERICENTER":145.304,"MEAN_ANOMALY":178.5633,"EPHEMERIS_TYPE":0,"CLASSIFICATION_TYPE":"U","NORAD_CAT_ID":37238,"ELEMENT_SET_NO":999,"REV_AT_EPOCH":5218,"BSTAR":0,"MEAN_MOTION_DOT":-1.7e-7,"MEAN_MOTION_DDOT":0},{"OBJECT_NAME":"INTELSAT 28 (IS-28)","OBJECT_ID":"2011-016A","EPOCH":"2026-03-02T17:23:15.178272","MEAN_MOTION":1.00270518,"ECCENTRICITY":0.0004519,"INCLINATION":1.5311,"RA_OF_ASC_NODE":84.0054,"ARG_OF_PERICENTER":254.3607,"MEAN_ANOMALY":51.2211,"EPHEMERIS_TYPE":0,"CLASSIFICATION_TYPE":"U","NORAD_CAT_ID":37392,"ELEMENT_SET_NO":999,"REV_AT_EPOCH":5221,"BSTAR":0,"MEAN_MOTION_DOT":-2.41e-6,"MEAN_MOTION_DDOT":0},{"OBJECT_NAME":"INTELSAT 18 (IS-18)","OBJECT_ID":"2011-056A","EPOCH":"2026-03-02T19:36:38.827584","MEAN_MOTION":1.00270216,"ECCENTRICITY":0.000198,"INCLINATION":0.022,"RA_OF_ASC_NODE":238.3233,"ARG_OF_PERICENTER":98.2623,"MEAN_ANOMALY":298.1359,"EPHEMERIS_TYPE":0,"CLASSIFICATION_TYPE":"U","NORAD_CAT_ID":37834,"ELEMENT_SET_NO":999,"REV_AT_EPOCH":5274,"BSTAR":0,"MEAN_MOTION_DOT":3.6e-7,"MEAN_MOTION_DDOT":0},{"OBJECT_NAME":"INTELSAT 22 (IS-22)","OBJECT_ID":"2012-011A","EPOCH":"2026-03-02T20:10:38.498304","MEAN_MOTION":1.00273272,"ECCENTRICITY":0.0001544,"INCLINATION":0.0238,"RA_OF_ASC_NODE":231.2347,"ARG_OF_PERICENTER":132.5811,"MEAN_ANOMALY":171.5542,"EPHEMERIS_TYPE":0,"CLASSIFICATION_TYPE":"U","NORAD_CAT_ID":38098,"ELEMENT_SET_NO":999,"REV_AT_EPOCH":612,"BSTAR":0,"MEAN_MOTION_DOT":-7.5e-7,"MEAN_MOTION_DDOT":0},{"OBJECT_NAME":"INTELSAT 19 (IS-19)","OBJECT_ID":"2012-030A","EPOCH":"2026-03-02T19:44:38.772672","MEAN_MOTION":1.00269981,"ECCENTRICITY":0.0003142,"INCLINATION":0.0251,"RA_OF_ASC_NODE":152.0507,"ARG_OF_PERICENTER":204.2128,"MEAN_ANOMALY":266.5144,"EPHEMERIS_TYPE":0,"CLASSIFICATION_TYPE":"U","NORAD_CAT_ID":38356,"ELEMENT_SET_NO":999,"REV_AT_EPOCH":4938,"BSTAR":0,"MEAN_MOTION_DOT":0,"MEAN_MOTION_DDOT":0},{"OBJECT_NAME":"INTELSAT 20 (IS-20)","OBJECT_ID":"2012-043A","EPOCH":"2026-03-02T17:51:49.939200","MEAN_MOTION":1.00272383,"ECCENTRICITY":0.0002367,"INCLINATION":0.0237,"RA_OF_ASC_NODE":125.0071,"ARG_OF_PERICENTER":39.1993,"MEAN_ANOMALY":332.7528,"EPHEMERIS_TYPE":0,"CLASSIFICATION_TYPE":"U","NORAD_CAT_ID":38740,"ELEMENT_SET_NO":999,"REV_AT_EPOCH":4968,"BSTAR":0,"MEAN_MOTION_DOT":-4.1e-7,"MEAN_MOTION_DDOT":0},{"OBJECT_NAME":"INTELSAT 21 (IS-21)","OBJECT_ID":"2012-045A","EPOCH":"2026-03-02T15:09:02.077920","MEAN_MOTION":1.0027121,"ECCENTRICITY":0.0001778,"INCLINATION":0.0406,"RA_OF_ASC_NODE":270.9472,"ARG_OF_PERICENTER":71.8207,"MEAN_ANOMALY":346.893,"EPHEMERIS_TYPE":0,"CLASSIFICATION_TYPE":"U","NORAD_CAT_ID":38749,"ELEMENT_SET_NO":999,"REV_AT_EPOCH":4945,"BSTAR":0,"MEAN_MOTION_DOT":-3.02e-6,"MEAN_MOTION_DDOT":0}]
